KUIPER-00167            
1 65780U 25217U   25354.16667823 -.00030186  00000+0 -36863-2 0  9998
2 65780  51.8980  37.2097 0005209  18.9826  11.9349 14.82778642  1307
KUIPER-00168            
1 65781U 25217V   25354.16667823 -.00948038  00000+0 -28558-1 0  9994
2 65781  51.8727  27.8823 0001127  65.0066   6.9456 15.36608412  5756
KUIPER-00169            
1 65782U 25217W   25354.16667823 -.01943461  00000+0 -87104-1 0  9993
2 65782  51.8793  29.0038 0004998  40.5798 217.6872 15.24061943  4493
KUIPER-00170            
1 65783U 25217X   25354.16667823 -.00043747  00000+0 -28948-2 0  9993
2 65783  51.8881  31.7740 0008498  41.0445 303.7618 15.06861346  5217
KUIPER-00171            
1 65784U 25217Y   25353.79666315  .00181551  00000+0  13905-2 0  9998
2 65784  51.8573  20.3379 0010977  38.0782 322.0993 15.70957528 13266
KUIPER-00172            
1 65785U 25217Z   25354.16667823 -.01057371  00000+0 -43744-1 0  9994
2 65785  51.8773  28.3296 0005602  39.7867 146.0891 15.26324048  5602
KUIPER-00173            
1 65786U 25217AA  25354.16667823 -.00970641  00000+0 -47091-1 0  9997
2 65786  51.8810  29.1852 0002479 337.4732 135.5862 15.20787084  5787
KUIPER-00174            
1 65787U 25217AB  25354.16667823 -.00030459  00000+0 -92499-3 0  9996
2 65787  51.8756  27.9716 0001376 321.9197  54.2007 15.33296757  5054
